442P/McNaught,e,6.0580,32.0039,310.7501,4.963988,0.0891165,0.53276574,51.4718,03/18.0/2024,2000,g 13.5,4.0
# From MPEC 2023-SQ0
443P/PANSTARRS-Christensen,e,19.8881,108.9423,145.1112,4.125613,0.1176173,0.28336693,61.7416,03/18.0/2024,2000,g 13.5,4.0
# From MPEC 2023-VM5
444P/WISE-PANSTARRS,e,22.2767,88.8851,171.6572,3.440290,0.1544584,0.57038760,95.1666,03/18.0/2024,2000,g 17.0,4.0
# From MPEC 2024-BE0
445P/Lemmon-PANSTARRS,e,1.0885,126.5922,213.3928,4.051484,0.1208601,0.41399224,69.9929,03/18.0/2024,2000,g 15.0,4.0
# From MPEC 2022-WQ9
446P/McNaught,e,16.6152,336.3800,344.6780,4.565432,0.1010372,0.64677572,66.5471,03/18.0/2024,2000,g 16.5,4.0
# From MPEC 2022-YB4
447P/Sheppard-Tholen,e,7.4377,302.6396,97.7217,5.632890,0.0737237,0.17840235,42.5414,03/18.0/2024,2000,g 12.0,4.0
# From MPEC 2023-A50
448P/PANSTARRS,e,12.1503,161.7569,218.7550,3.634832,0.1422255,0.41867494,79.4300,03/18.0/2024,2000,g 16.0,4.0
# From MPEC 2024-DC6
449P/Leonard,e,15.4711,242.5241,176.7251,3.600117,0.1442876,0.47983487,174.5113,03/18.0/2024,2000,g 16.0,4.0
# From MPEC 2024-D33
450P/LONEOS,e,10.5594,124.7710,21.4319,7.971947,0.0437882,0.31216847,314.6459,03/18.0/2024,2000,g  6.5,4.0
# From MPEC 2023-HD1
451P/Christensen,e,26.4796,300.8940,186.7254,6.344233,0.0616787,0.55889528,29.3817,03/18.0/2024,2000,g 15.5,4.0
# From MPEC 2023-J29
452P/Sheppard-Jewitt,e,6.4215,123.6853,37.0457,7.302676,0.0499437,0.42788129,16.3533,03/18.0/2024,2000,g  9.0,4.0
# From MPEC 2023-RF3
453P/WISE-Lemmon,e,27.0678,42.8960,70.8516,5.462595,0.0771979,0.58287100,29.4034,03/18.0/2024,2000,g 14.0,4.0
# From MPEC 2023-CD7
454P/PANSTARRS,e,19.8127,54.5823,20.0901,4.208491,0.1141601,0.36157853,68.5700,03/18.0/2024,2000,g 14.0,4.0
# From MPEC 2022-Y14
455P/PANSTARRS,e,14.1378,146.1842,237.5057,3.152632,0.1760736,0.30484529,68.1067,03/18.0/2024,2000,g 17.0,4.0
# From MPEC 2023-N01
456P/PANSTARRS,e,16.9672,243.1618,233.6233,3.171786,0.1744810,0.11762523,290.9903,03/18.0/2024,2000,g 13.5,4.0
# From MPEC 2023-F99
457P/Lemmon-PANSTARRS,e,5.2251,175.9724,104.3971,2.646100,0.2289785,0.11869881,324.4219,03/18.0/2024,2000,g 15.5,4.0
# From MPEC 2023-HD1
458P/Jahn,e,13.6264,1.5858,104.8367,3.857695,0.1300805,0.31711584,65.6465,03/18.0/2024,2000,g 17.3,4.0
# From MPEC 2023-UR6
459P/Catalina,e,7.1729,256.9897,205.2013,3.239760,0.1690188,0.57770755,66.0138,03/18.0/2024,2000,g 15.5,4.0
# From MPEC 2023-G14
460P/PANSTARRS,e,18.8955,180.5151,351.9522,3.027102,0.1871386,0.66401297,188.2029,03/18.0/2024,2000,g 21.0,4.0
# From MPEC 2024-D33
461P/WISE,e,18.4096,194.3785,174.8281,3.143329,0.1768558,0.57008952,158.3075,03/18.0/2024,2000,g 18.5,4.0
# From MPEC 2024-BE0
462P/LONEOS-PANSTARRS,e,7.0278,322.7760,4.3676,4.876826,0.0915163,0.57821459,54.3717,03/18.0/2024,2000,g 17.0,4.0
# From MPEC 2023-XP6
463P/NEOWISE,e,29.2857,283.2100,216.3559,2.974460,0.1921286,0.82561721,68.0833,03/18.0/2024,2000,g 18.0,4.0
# From MPEC 2023-RF3
464P/PANSTARRS,e,21.6669,309.5800,267.6457,4.686652,0.0971427,0.28050005,37.3207,03/18.0/2024,2000,g 10.5,4.0
# From MPEC 2024-AF0
465P/Hill,e,25.8699,218.0078,141.1353,6.030520,0.0665537,0.61395060,20.8561,03/18.0/2024,2000,g 12.5,4.0
# From MPEC 2023-VM5
466P/PANSTARRS,e,12.2367,119.7966,196.8419,4.048552,0.1209914,0.46773897,38.6028,03/18.0/2024,2000,g 14.0,4.0
# From MPEC 2023-T65
467P/LINEAR-Grauer,e,2.4789,43.2695,267.8479,5.831098,0.0699969,0.05530270,33.0564,03/18.0/2024,2000,g  9.0,4.0
# From MPEC 2023-XP6
468P/SidingSpring,e,50.4463,356.1239,322.5674,7.123343,0.0518416,0.44549785,6.1103,03/18.0/2024,2000,g 11.5,4.0
# From MPEC 2023-P35
469P/PANSTARRS,e,20.1741,178.9653,43.5264,4.340116,0.1090064,0.30755688,291.2532,03/18.0/2024,2000,g 13.5,4.0
# From MPEC 2024-D33
470P/PANSTARRS,e,8.8424,246.1740,151.9744,4.476552,0.1040612,0.39048212,9.4774,03/18.0/2024,2000,g 15.5,4.0
# From MPEC 2024-EF7
471P/,e,4.7913,283.3237,94.9692,5.711570,0.0722056,0.62826691,6.4068,03/18.0/2024,2000,g 12.0,4.0
# From MPEC 2024-D33
472P/NEAT-LINEAR,e,10.8497,206.0373,219.0694,7.822339,0.0450504,0.56676133,354.5780,03/18.0/2024,2000,g 10.5,4.0
# From MPEC 2024-EF7
473P/NEAT,e,56.9082,22.1846,42.9170,7.970423,0.0438008,0.82362459,0.9092,03/18.0/2024,2000,g 13.5,4.0
# From MPEC 2024-B74
474P/Hogan,e,1.0970,26.7560,11.3105,3.131244,0.1778807,0.18845077,43.7461,03/18.0/2024,2000,g 15.5,4.0
# From MPEC 2024-EF7
475P/Spacewatch-LINEAR,e,14.5260,147.3778,40.3994,7.307578,0.0498935,0.44202201,356.2248,03/18.0/2024,2000,g 11.0,4.0
# From MPEC 2024-C04
476P/PANSTARRS,e,19.0089,57.0607,46.7508,4.793447,0.0939144,0.34838867,340.0298,03/18.0/2024,2000,g 12.5,4.0
# From MPEC 2024-D33
477P/PANSTARRS,e,8.9151,59.1590,306.0121,3.004800,0.1892260,0.41736995,15.5645,03/18.0/2024,2000,g 14.5,4.0
# From MPEC 2024-EF7
478P/ATLAS,e,12.5252,127.2716,13.1766,3.645720,0.1415889,0.34344647,353.6341,03/18.0/2024,2000,g 13.5,4.0
# From MPEC 2024-EF7
479P/Elenin,e,15.3979,295.8342,263.5250,5.622430,0.0739295,0.77879628,356.4333,03/18.0/2024,2000,g 15.0,4.0
# From MPEC 2024-EF7
480P/PANSTARRS,e,13.7175,229.9772,214.2514,4.607577,0.0996541,0.24635214,32.8940,03/18.0/2024,2000,g 12.0,4.0
# From MPC107687
1I/`Oumuamua,h,09/09.4886/2017,122.6778,24.5997,241.6845,1.199252,0.255240,2000,23.0,2.0
# From MPEC 2023-L37
2I/Borisov,h,12/08.5548/2019,44.0527,308.1480,209.1251,3.356633,2.006548,2000,11.0,4.0
